FENGYUN 1C DEB          
1 30072U 99025PZ  17345.67908553  .00000734  00000-0  43472-3 0  9997
2 30072  99.1152  37.7828 0087521 258.4143 100.7192 14.09023678558161
